STARLINK-31138          
1 58806U 24012V   26068.29284590 -.00007888  00000+0 -27713-3 0  9992
2 58806  42.9963 167.6203 0000427  78.5636 281.5264 15.27617781121170
TROLL                   
1 62658U 25009BB  26068.22522958  .00013174  00000+0  48220-3 0  9994
2 62658  97.3932 150.7169 0001816  59.1850 300.9568 15.28164315118170
